*******************************************************************************
Ephemeris / WWW_USER Mon Mar 10 08:31:11 2025 Pasadena, USA      / Horizons    
*******************************************************************************
Target body name: 341764 (2007 VZ326)             {source: JPL#18}
Center body name: Earth (399)                     {source: DE441}
Center-site name: Mauna Kea
*******************************************************************************
Start time      : A.D. 2018-Dec-06 03:52:00.0000 UT      
Stop  time      : A.D. 2018-Dec-06 16:33:00.0000 UT      
Step-size       : 1 minutes
*******************************************************************************
Target pole/equ : undefined
Target radii    : undefined                                                    
Center geodetic : 204.5278, 19.8260847, 4.21024   {E-lon(deg),Lat(deg),Alt(km)}
Center cylindric: 204.5278, 6006.35451, 2151.0229 {E-lon(deg),Dxy(km),Dz(km)}
Center pole/equ : ITRF93                          {East-longitude positive}
Center radii    : 6378.137, 6378.137, 6356.752 km {Equator_a, b, pole_c}       
Target primary  : Sun
Vis. interferer : MOON (R_eq= 1737.400) km        {source: DE441}
Rel. light bend : Sun                             {source: DE441}
Rel. lght bnd GM: 1.3271E+11 km^3/s^2                                          
Small-body perts: Yes                             {source: SB441-N16}
Atmos refraction: NO (AIRLESS)
RA format       : HMS
Time format     : CAL 
Calendar mode   : Mixed Julian/Gregorian
RTS-only print  : NO       
EOP file        : eop.250307.p250603                                           
EOP coverage    : DATA-BASED 1962-JAN-20 TO 2025-MAR-07. PREDICTS-> 2025-JUN-02
Units conversion: 1 au= 149597870.700 km, c= 299792.458 km/s, 1 day= 86400.0 s 
Table cut-offs 1: Elevation (-90.0deg=NO ),Airmass (>38.000=NO), Daylight (YES)
Table cut-offs 2: Solar elongation (  0.0,180.0=NO ),Local Hour Angle( 0.0=NO )
Table cut-offs 3: RA/DEC angular rate (     0.0=NO )                           
*******************************************************************************
Initial IAU76/J2000 heliocentric ecliptic osculating elements (au, days, deg.):
  EPOCH=  2458738.5 ! 2019-Sep-12.00 (TDB)         Residual RMS= .13886        
   EC= .1008373990761695   QR= 2.768240023430626   TP= 2458584.3440952813      
   OM= 228.7009686323446   W=  245.4004729743531   IN= 4.232471987434818       
  Equivalent ICRF heliocentric cartesian coordinates (au, au/d):
   X=-2.388613100272569E+00  Y= 1.431394755664809E+00  Z= 3.975078424350988E-01
  VX=-6.081658482309184E-03 VY=-8.102092841560219E-03 VZ=-3.413222734767960E-03
Asteroid physical parameters (km, seconds, rotational period in hours):        
   GM= n.a.                RAD= n.a.               ROTPER= n.a.                
   H= 16.54                G= .150                 B-V= n.a.                   
                           ALBEDO= n.a.            STYP= n.a.                  
*******************************************************************************
 Date__(UT)__HR:MN     R.A._________(ICRF)_________DEC
******************************************************
$$SOE
 2018-Dec-06 16:10 Nm  06 10 21.579018 +19 30 56.20830
 2018-Dec-06 16:11 Nm  06 10 21.545933 +19 30 56.13891
 2018-Dec-06 16:12 Nm  06 10 21.512854 +19 30 56.06952
 2018-Dec-06 16:13 Nm  06 10 21.479780 +19 30 56.00011
 2018-Dec-06 16:14 Nm  06 10 21.446710 +19 30 55.93070
 2018-Dec-06 16:15 Nm  06 10 21.413647 +19 30 55.86127
 2018-Dec-06 16:16 Nm  06 10 21.380588 +19 30 55.79184
 2018-Dec-06 16:17 Nm  06 10 21.347535 +19 30 55.72240
 2018-Dec-06 16:18 Nm  06 10 21.314487 +19 30 55.65295
 2018-Dec-06 16:19 Nm  06 10 21.281444 +19 30 55.58350
 2018-Dec-06 16:20 Cm  06 10 21.248407 +19 30 55.51403
 2018-Dec-06 16:21 Cm  06 10 21.215375 +19 30 55.44456
 2018-Dec-06 16:22 Cm  06 10 21.182349 +19 30 55.37508
 2018-Dec-06 16:23 Cm  06 10 21.149327 +19 30 55.30559
 2018-Dec-06 16:24 Cm  06 10 21.116311 +19 30 55.23609
 2018-Dec-06 16:25 Cm  06 10 21.083301 +19 30 55.16658
 2018-Dec-06 16:26 Cm  06 10 21.050296 +19 30 55.09707
 2018-Dec-06 16:27 Cm  06 10 21.017296 +19 30 55.02755
 2018-Dec-06 16:28 Cm  06 10 20.984302 +19 30 54.95802
 2018-Dec-06 16:29 Cm  06 10 20.951313 +19 30 54.88849
 2018-Dec-06 16:30 Cm  06 10 20.918329 +19 30 54.81895
 2018-Dec-06 16:31 Cm  06 10 20.885351 +19 30 54.74940
 2018-Dec-06 16:32 Cm  06 10 20.852378 +19 30 54.67984
 2018-Dec-06 16:33 Cm  06 10 20.819410 +19 30 54.61028
